STARLINK-35747          
1 66207U 25244B   25327.83335647 -.00568483  00000+0 -53257-2 0  9995
2 66207  53.1597   3.1311 0000980 104.2266 135.4410 15.68268760  5215
STARLINK-35751          
1 66208U 25244C   25327.52624233  .00053877  00000+0  13463-2 0  9993
2 66208  53.1599   6.7065 0001550  78.5797 281.5382 15.39644430  5355
STARLINK-35750          
1 66209U 25244D   25327.83335647  .00009443  00000+0  24582-3 0  9991
2 66209  53.1602   5.2072 0001462  87.1275 201.9200 15.39612028  5300
STARLINK-35740          
1 66210U 25244E   25327.83335647  .00016025  00000+0  41006-3 0  9997
2 66210  53.1602   5.2115 0001248  94.5826 192.6500 15.39598007  5169
STARLINK-35723          
1 66211U 25244F   25327.83335647  .00010213  00000+0  26507-3 0  9990
2 66211  53.1604   5.1596 0001420 101.4500 211.5277 15.39608040  5210
STARLINK-35710          
1 66212U 25244G   25327.83335647  .00010380  00000+0  26924-3 0  9999
2 66212  53.1604   5.1077 0002016  86.9145 251.8120 15.39608739  5308
STARLINK-34204          
1 66213U 25244H   25327.83335647  .00008862  00000+0  23137-3 0  9995
2 66213  53.1604   5.1562 0001446  90.9440 223.8530 15.39608042  5498
STARLINK-35714          
1 66214U 25244J   25327.83335647  .00013578  00000+0  34892-3 0  9996
2 66214  53.1600   5.0046 0001489  79.4908 310.7385 15.39611132  5161
STARLINK-35712          
1 66215U 25244K   25327.83335647  .00014373  00000+0  36882-3 0  9992
2 66215  53.1597   4.9534 0001372  97.4952 318.4891 15.39603263  5160
STARLINK-35709          
1 66216U 25244L   25327.83335647  .00011285  00000+0  29178-3 0  9992
2 66216  53.1605   5.1043 0001064 100.5239 240.0293 15.39610883  5163
STARLINK-35700          
1 66217U 25244M   25327.83335647  .00010428  00000+0  27046-3 0  9993
2 66217  53.1603   5.0567 0001851  94.2907 270.1921 15.39605659  5164
STARLINK-35722          
1 66218U 25244N   25327.83335647  .00011526  00000+0  29786-3 0  9997
2 66218  53.1603   5.0527 0001848  94.2279 272.0828 15.39604069  5160
