CCSDS_OMM_VERS = 2.0
CREATION_DATE  = 
ORIGINATOR     = 

OBJECT_NAME    = STARLINK-35747
OBJECT_ID      = 2025-244B
CENTER_NAME    = EARTH
REF_FRAME      = TEME
TIME_SYSTEM    = UTC
MEAN_ELEMENT_THEORY = SGP/SGP4

EPOCH          = 2025-11-23T20:00:01.999008
MEAN_MOTION    = 15.68268760
ECCENTRICITY   = .000098
INCLINATION    = 53.1597
RA_OF_ASC_NODE = 3.1311
ARG_OF_PERICENTER = 104.2266
MEAN_ANOMALY   = 135.4410

EPHEMERIS_TYPE = 0
CLASSIFICATION_TYPE = U
NORAD_CAT_ID   = 66207
ELEMENT_SET_NO = 999
REV_AT_EPOCH   = 521
BSTAR          = -.53257E-2
MEAN_MOTION_DOT = -.568483E-2
MEAN_MOTION_DDOT = 0

CCSDS_OMM_VERS = 2.0
CREATION_DATE  = 
ORIGINATOR     = 

OBJECT_NAME    = STARLINK-35751
OBJECT_ID      = 2025-244C
CENTER_NAME    = EARTH
REF_FRAME      = TEME
TIME_SYSTEM    = UTC
MEAN_ELEMENT_THEORY = SGP/SGP4

EPOCH          = 2025-11-23T12:37:47.337312
MEAN_MOTION    = 15.39644430
ECCENTRICITY   = .000155
INCLINATION    = 53.1599
RA_OF_ASC_NODE = 6.7065
ARG_OF_PERICENTER = 78.5797
MEAN_ANOMALY   = 281.5382

EPHEMERIS_TYPE = 0
CLASSIFICATION_TYPE = U
NORAD_CAT_ID   = 66208
ELEMENT_SET_NO = 999
REV_AT_EPOCH   = 535
BSTAR          = .13463E-2
MEAN_MOTION_DOT = .53877E-3
MEAN_MOTION_DDOT = 0

CCSDS_OMM_VERS = 2.0
CREATION_DATE  = 
ORIGINATOR     = 

OBJECT_NAME    = STARLINK-35750
OBJECT_ID      = 2025-244D
CENTER_NAME    = EARTH
REF_FRAME      = TEME
TIME_SYSTEM    = UTC
MEAN_ELEMENT_THEORY = SGP/SGP4

EPOCH          = 2025-11-23T20:00:01.999008
MEAN_MOTION    = 15.39612028
ECCENTRICITY   = .0001462
INCLINATION    = 53.1602
RA_OF_ASC_NODE = 5.2072
ARG_OF_PERICENTER = 87.1275
MEAN_ANOMALY   = 201.9200

EPHEMERIS_TYPE = 0
CLASSIFICATION_TYPE = U
NORAD_CAT_ID   = 66209
ELEMENT_SET_NO = 999
REV_AT_EPOCH   = 530
BSTAR          = .24582E-3
MEAN_MOTION_DOT = .9443E-4
MEAN_MOTION_DDOT = 0

CCSDS_OMM_VERS = 2.0
CREATION_DATE  = 
ORIGINATOR     = 

OBJECT_NAME    = STARLINK-35740
OBJECT_ID      = 2025-244E
CENTER_NAME    = EARTH
REF_FRAME      = TEME
TIME_SYSTEM    = UTC
MEAN_ELEMENT_THEORY = SGP/SGP4

EPOCH          = 2025-11-23T20:00:01.999008
MEAN_MOTION    = 15.39598007
ECCENTRICITY   = .0001248
INCLINATION    = 53.1602
RA_OF_ASC_NODE = 5.2115
ARG_OF_PERICENTER = 94.5826
MEAN_ANOMALY   = 192.6500

EPHEMERIS_TYPE = 0
CLASSIFICATION_TYPE = U
NORAD_CAT_ID   = 66210
ELEMENT_SET_NO = 999
REV_AT_EPOCH   = 516
BSTAR          = .41006E-3
MEAN_MOTION_DOT = .16025E-3
MEAN_MOTION_DDOT = 0

CCSDS_OMM_VERS = 2.0
CREATION_DATE  = 
ORIGINATOR     = 

OBJECT_NAME    = STARLINK-35723
OBJECT_ID      = 2025-244F
CENTER_NAME    = EARTH
REF_FRAME      = TEME
TIME_SYSTEM    = UTC
MEAN_ELEMENT_THEORY = SGP/SGP4

EPOCH          = 2025-11-23T20:00:01.999008
MEAN_MOTION    = 15.39608040
ECCENTRICITY   = .000142
INCLINATION    = 53.1604
RA_OF_ASC_NODE = 5.1596
ARG_OF_PERICENTER = 101.4500
MEAN_ANOMALY   = 211.5277

EPHEMERIS_TYPE = 0
CLASSIFICATION_TYPE = U
NORAD_CAT_ID   = 66211
ELEMENT_SET_NO = 999
REV_AT_EPOCH   = 521
BSTAR          = .26507E-3
MEAN_MOTION_DOT = .10213E-3
MEAN_MOTION_DDOT = 0

CCSDS_OMM_VERS = 2.0
CREATION_DATE  = 
ORIGINATOR     = 

OBJECT_NAME    = STARLINK-35710
OBJECT_ID      = 2025-244G
CENTER_NAME    = EARTH
REF_FRAME      = TEME
TIME_SYSTEM    = UTC
MEAN_ELEMENT_THEORY = SGP/SGP4

EPOCH          = 2025-11-23T20:00:01.999008
MEAN_MOTION    = 15.39608739
ECCENTRICITY   = .0002016
INCLINATION    = 53.1604
RA_OF_ASC_NODE = 5.1077
ARG_OF_PERICENTER = 86.9145
MEAN_ANOMALY   = 251.8120

EPHEMERIS_TYPE = 0
CLASSIFICATION_TYPE = U
NORAD_CAT_ID   = 66212
ELEMENT_SET_NO = 999
REV_AT_EPOCH   = 530
BSTAR          = .26924E-3
MEAN_MOTION_DOT = .1038E-3
MEAN_MOTION_DDOT = 0

CCSDS_OMM_VERS = 2.0
CREATION_DATE  = 
ORIGINATOR     = 

OBJECT_NAME    = STARLINK-34204
OBJECT_ID      = 2025-244H
CENTER_NAME    = EARTH
REF_FRAME      = TEME
TIME_SYSTEM    = UTC
MEAN_ELEMENT_THEORY = SGP/SGP4

EPOCH          = 2025-11-23T20:00:01.999008
MEAN_MOTION    = 15.39608042
ECCENTRICITY   = .0001446
INCLINATION    = 53.1604
RA_OF_ASC_NODE = 5.1562
ARG_OF_PERICENTER = 90.9440
MEAN_ANOMALY   = 223.8530

EPHEMERIS_TYPE = 0
CLASSIFICATION_TYPE = U
NORAD_CAT_ID   = 66213
ELEMENT_SET_NO = 999
REV_AT_EPOCH   = 549
BSTAR          = .23137E-3
MEAN_MOTION_DOT = .8862E-4
MEAN_MOTION_DDOT = 0

CCSDS_OMM_VERS = 2.0
CREATION_DATE  = 
ORIGINATOR     = 

OBJECT_NAME    = STARLINK-35714
OBJECT_ID      = 2025-244J
CENTER_NAME    = EARTH
REF_FRAME      = TEME
TIME_SYSTEM    = UTC
MEAN_ELEMENT_THEORY = SGP/SGP4

EPOCH          = 2025-11-23T20:00:01.999008
MEAN_MOTION    = 15.39611132
ECCENTRICITY   = .0001489
INCLINATION    = 53.1600
RA_OF_ASC_NODE = 5.0046
ARG_OF_PERICENTER = 79.4908
MEAN_ANOMALY   = 310.7385

EPHEMERIS_TYPE = 0
CLASSIFICATION_TYPE = U
NORAD_CAT_ID   = 66214
ELEMENT_SET_NO = 999
REV_AT_EPOCH   = 516
BSTAR          = .34892E-3
MEAN_MOTION_DOT = .13578E-3
MEAN_MOTION_DDOT = 0

CCSDS_OMM_VERS = 2.0
CREATION_DATE  = 
ORIGINATOR     = 

OBJECT_NAME    = STARLINK-35712
OBJECT_ID      = 2025-244K
CENTER_NAME    = EARTH
REF_FRAME      = TEME
TIME_SYSTEM    = UTC
MEAN_ELEMENT_THEORY = SGP/SGP4

EPOCH          = 2025-11-23T20:00:01.999008
MEAN_MOTION    = 15.39603263
ECCENTRICITY   = .0001372
INCLINATION    = 53.1597
RA_OF_ASC_NODE = 4.9534
ARG_OF_PERICENTER = 97.4952
MEAN_ANOMALY   = 318.4891

EPHEMERIS_TYPE = 0
CLASSIFICATION_TYPE = U
NORAD_CAT_ID   = 66215
ELEMENT_SET_NO = 999
REV_AT_EPOCH   = 516
BSTAR          = .36882E-3
MEAN_MOTION_DOT = .14373E-3
MEAN_MOTION_DDOT = 0

CCSDS_OMM_VERS = 2.0
CREATION_DATE  = 
ORIGINATOR     = 

OBJECT_NAME    = STARLINK-35709
OBJECT_ID      = 2025-244L
CENTER_NAME    = EARTH
REF_FRAME      = TEME
TIME_SYSTEM    = UTC
MEAN_ELEMENT_THEORY = SGP/SGP4

EPOCH          = 2025-11-23T20:00:01.999008
MEAN_MOTION    = 15.39610883
ECCENTRICITY   = .0001064
INCLINATION    = 53.1605
RA_OF_ASC_NODE = 5.1043
ARG_OF_PERICENTER = 100.5239
MEAN_ANOMALY   = 240.0293

EPHEMERIS_TYPE = 0
CLASSIFICATION_TYPE = U
NORAD_CAT_ID   = 66216
ELEMENT_SET_NO = 999
REV_AT_EPOCH   = 516
BSTAR          = .29178E-3
MEAN_MOTION_DOT = .11285E-3
MEAN_MOTION_DDOT = 0

CCSDS_OMM_VERS = 2.0
CREATION_DATE  = 
ORIGINATOR     = 

OBJECT_NAME    = STARLINK-35700
OBJECT_ID      = 2025-244M
CENTER_NAME    = EARTH
REF_FRAME      = TEME
TIME_SYSTEM    = UTC
MEAN_ELEMENT_THEORY = SGP/SGP4

EPOCH          = 2025-11-23T20:00:01.999008
MEAN_MOTION    = 15.39605659
ECCENTRICITY   = .0001851
INCLINATION    = 53.1603
RA_OF_ASC_NODE = 5.0567
ARG_OF_PERICENTER = 94.2907
MEAN_ANOMALY   = 270.1921

EPHEMERIS_TYPE = 0
CLASSIFICATION_TYPE = U
NORAD_CAT_ID   = 66217
ELEMENT_SET_NO = 999
REV_AT_EPOCH   = 516
BSTAR          = .27046E-3
MEAN_MOTION_DOT = .10428E-3
MEAN_MOTION_DDOT = 0

CCSDS_OMM_VERS = 2.0
CREATION_DATE  = 
ORIGINATOR     = 

OBJECT_NAME    = STARLINK-35722
OBJECT_ID      = 2025-244N
CENTER_NAME    = EARTH
REF_FRAME      = TEME
TIME_SYSTEM    = UTC
MEAN_ELEMENT_THEORY = SGP/SGP4

EPOCH          = 2025-11-23T20:00:01.999008
MEAN_MOTION    = 15.39604069
ECCENTRICITY   = .0001848
INCLINATION    = 53.1603
RA_OF_ASC_NODE = 5.0527
ARG_OF_PERICENTER = 94.2279
MEAN_ANOMALY   = 272.0828

EPHEMERIS_TYPE = 0
CLASSIFICATION_TYPE = U
NORAD_CAT_ID   = 66218
ELEMENT_SET_NO = 999
REV_AT_EPOCH   = 516
BSTAR          = .29786E-3
MEAN_MOTION_DOT = .11526E-3
MEAN_MOTION_DDOT = 0

